{"type": "FeatureCollection", "features": [ {"type": "Feature", "properties": {"norad_id": 30071, "name": "FENGYUN 1C DEB", "group": "fengyun-1c-debris", "lat": 26.83470608100732, "lon": -74.67209738118189, "alt_km": 715.2555418054808, "timestamp": "2025-12-27T04:40:45.779258+00:00", "meta": {"OBJECT_NAME": "FENGYUN 1C DEB", "OBJECT_ID": "1999-025PY", "EPOCH": "2025-12-26T18:39:27.063648", "MEAN_MOTION": 14.52394801, "ECCENTRICITY": 0.00379821, "INCLINATION": 98.6574, "RA_OF_ASC_NODE": 100.4767, "ARG_OF_PERICENTER": 66.9902, "MEAN_ANOMALY": 63.2124, "EPHEMERIS_TYPE": 0, "CLASSIFICATION_TYPE": "U", "NORAD_CAT_ID": 30071, "ELEMENT_SET_NO": 999, "REV_AT_EPOCH": 98430, "BSTAR": 0.0022795973, "MEAN_MOTION_DOT": 9.336e-05, "MEAN_MOTION_DDOT": 0}, "tle": {"line1": "1 30071U 99025PY  25360.77739657  .00009336  00000+0  22796-2 0  9991", "line2": "2 30071  98.6574 100.4767 0037982  66.9902  63.2124 14.52394801984307"}}, "geometry": {"type": "Point", "coordinates": [-74.67209738118189, 26.83470608100732]}}, {"type": "Feature", "properties": {"norad_id": 30072, "name": "FENGYUN 1C DEB", "group": "fengyun-1c-debris", "lat": 80.84267028654833, "lon": 67.68928577419373, "alt_km": 791.2990955186951, "timestamp": "2025-12-27T04:40:45.779267+00:00", "meta": {"OBJECT_NAME": "FENGYUN 1C DEB", "OBJECT_ID": "1999-025PZ", "EPOCH": "2025-12-26T21:35:02.328864", "MEAN_MOTION": 14.38055327, "ECCENTRICITY": 0.00601748, "INCLINATION": 99.0762, "RA_OF_ASC_NODE": 149.9597, "ARG_OF_PERICENTER": 231.8538, "MEAN_ANOMALY": 127.7216, "EPHEMERIS_TYPE": 0, "CLASSIFICATION_TYPE": "U", "NORAD_CAT_ID": 30072, "ELEMENT_SET_NO": 999, "REV_AT_EPOCH": 97374, "BSTAR": 0.0042773312, "MEAN_MOTION_DOT": 0.00013203, "MEAN_MOTION_DDOT": 0}, "tle": {"line1": "1 30072U 99025PZ  25360.89933251  .00013203  00000+0  42773-2 0  9996", "line2": "2 30072  99.0762 149.9597 0060174 231.8538 127.7216 14.38055327973743"}}, "geometry": {"type": "Point", "coordinates": [67.68928577419373, 80.84267028654833]}}, {"type": "Feature", "properties": {"norad_id": 30073, "name": "FENGYUN 1C DEB", "group": "fengyun-1c-debris", "lat": 77.0160403426543, "lon": -70.80468464074211, "alt_km": 857.6634275743454, "timestamp": "2025-12-27T04:40:45.779278+00:00", "meta": {"OBJECT_NAME": "FENGYUN 1C DEB", "OBJECT_ID": "1999-025QA", "EPOCH": "2025-12-26T21:47:10.743936", "MEAN_MOTION": 14.1874961, "ECCENTRICITY": 0.00527766, "INCLINATION": 99.4127, "RA_OF_ASC_NODE": 334.8984, "ARG_OF_PERICENTER": 240.3895, "MEAN_ANOMALY": 174.7479, "EPHEMERIS_TYPE": 0, "CLASSIFICATION_TYPE": "U", "NORAD_CAT_ID": 30073, "ELEMENT_SET_NO": 999, "REV_AT_EPOCH": 97126, "BSTAR": 0.0016062398, "MEAN_MOTION_DOT": 3.334e-05, "MEAN_MOTION_DDOT": 0}, "tle": {"line1": "1 30073U 99025QA  25360.90776324  .00003334  00000+0  16062-2 0  9991", "line2": "2 30073  99.4127 334.8984 0052776 240.3895 174.7479 14.18749610971269"}}, "geometry": {"type": "Point", "coordinates": [-70.80468464074211, 77.0160403426543]}}, {"type": "Feature", "properties": {"norad_id": 30074, "name": "FENGYUN 1C DEB", "group": "fengyun-1c-debris", "lat": -71.9075984088257, "lon": -141.76869419300849, "alt_km": 911.8237166968511, "timestamp": "2025-12-27T04:40:45.779288+00:00", "meta": {"OBJECT_NAME": "FENGYUN 1C DEB", "OBJECT_ID": "1999-025QB", "EPOCH": "2025-12-26T15:35:26.651328", "MEAN_MOTION": 14.12927026, "ECCENTRICITY": 0.00966737, "INCLINATION": 99.1283, "RA_OF_ASC_NODE": 67.1565, "ARG_OF_PERICENTER": 113.2956, "MEAN_ANOMALY": 247.8426, "EPHEMERIS_TYPE": 0, "CLASSIFICATION_TYPE": "U", "NORAD_CAT_ID": 30074, "ELEMENT_SET_NO": 999, "REV_AT_EPOCH": 96858, "BSTAR": 0.0012738182, "MEAN_MOTION_DOT": 2.435e-05, "MEAN_MOTION_DDOT": 0}, "tle": {"line1": "1 30074U 99025QB  25360.64961402  .00002435  00000+0  12738-2 0  9993", "line2": "2 30074  99.1283  67.1565 0096673 113.2956 247.8426 14.12927026968589"}}, "geometry": {"type": "Point", "coordinates": [-141.76869419300849, -71.9075984088257]}}, {"type": "Feature", "properties": {"norad_id": 30075, "name": "FENGYUN 1C DEB", "group": "fengyun-1c-debris", "lat": 9.384340686129786, "lon": 50.094437762456174, "alt_km": 962.6024271960505, "timestamp": "2025-12-27T04:40:45.779298+00:00", "meta": {"OBJECT_NAME": "FENGYUN 1C DEB", "OBJECT_ID": "1999-025QC", "EPOCH": "2025-12-26T09:59:26.158272", "MEAN_MOTION": 13.92538152, "ECCENTRICITY": 0.0091508, "INCLINATION": 99.3598, "RA_OF_ASC_NODE": 50.8699, "ARG_OF_PERICENTER": 140.3251, "MEAN_ANOMALY": 288.4965, "EPHEMERIS_TYPE": 0, "CLASSIFICATION_TYPE": "U", "NORAD_CAT_ID": 30075, "ELEMENT_SET_NO": 999, "REV_AT_EPOCH": 96255, "BSTAR": 2.9435e-05, "MEAN_MOTION_DOT": -6e-08, "MEAN_MOTION_DDOT": 0}, "tle": {"line1": "1 30075U 99025QC  25360.41627498 -.00000006  00000+0  29435-4 0  9990", "line2": "2 30075  99.3598  50.8699 0091508 140.3251 288.4965 13.92538152962554"}}, "geometry": {"type": "Point", "coordinates": [50.094437762456174, 9.384340686129786]}}, {"type": "Feature", "properties": {"norad_id": 30076, "name": "FENGYUN 1C DEB", "group": "fengyun-1c-debris", "lat": -58.58779085400605, "lon": 2.9542011691187198, "alt_km": 1038.2830208063206, "timestamp": "2025-12-27T04:40:45.779308+00:00", "meta": {"OBJECT_NAME": "FENGYUN 1C DEB", "OBJECT_ID": "1999-025QD", "EPOCH": "2025-12-26T22:17:48.889248", "MEAN_MOTION": 13.76300863, "ECCENTRICITY": 0.01757028, "INCLINATION": 99.2396, "RA_OF_ASC_NODE": 347.2377, "ARG_OF_PERICENTER": 56.6199, "MEAN_ANOMALY": 8.4934, "EPHEMERIS_TYPE": 0, "CLASSIFICATION_TYPE": "U", "NORAD_CAT_ID": 30076, "ELEMENT_SET_NO": 999, "REV_AT_EPOCH": 95089, "BSTAR": 0.00037733878, "MEAN_MOTION_DOT": 3.7e-06, "MEAN_MOTION_DDOT": 0}, "tle": {"line1": "1 30076U 99025QD  25360.92903807  .00000370  00000+0  37734-3 0  9991", "line2": "2 30076  99.2396 347.2377 0175702  56.6199   8.4934 13.76300863950893"}}, "geometry": {"type": "Point", "coordinates": [2.9542011691187198, -58.58779085400605]}}, {"type": "Feature", "properties": {"norad_id": 30077, "name": "FENGYUN 1C DEB", "group": "fengyun-1c-debris", "lat": 24.942198829469884, "lon": 12.286318870913053, "alt_km": 883.0117385222238, "timestamp": "2025-12-27T04:40:45.779318+00:00", "meta": {"OBJECT_NAME": "FENGYUN 1C DEB", "OBJECT_ID": "1999-025QE", "EPOCH": "2025-12-26T22:17:16.058976", "MEAN_MOTION": 14.07081249, "ECCENTRICITY": 0.0020752, "INCLINATION": 98.7574, "RA_OF_ASC_NODE": 16.1394, "ARG_OF_PERICENTER": 222.4301, "MEAN_ANOMALY": 254.5884, "EPHEMERIS_TYPE": 0, "CLASSIFICATION_TYPE": "U", "NORAD_CAT_ID": 30077, "ELEMENT_SET_NO": 999, "REV_AT_EPOCH": 97312, "BSTAR": 0.00014830294, "MEAN_MOTION_DOT": 2.06e-06, "MEAN_MOTION_DDOT": 0}, "tle": {"line1": "1 30077U 99025QE  25360.92865809  .00000206  00000+0  14830-3 0  9991", "line2": "2 30077  98.7574  16.1394 0020752 222.4301 254.5884 14.07081249973127"}}, "geometry": {"type": "Point", "coordinates": [12.286318870913053, 24.942198829469884]}}, {"type": "Feature", "properties": {"norad_id": 30078, "name": "FENGYUN 1C DEB", "group": "fengyun-1c-debris", "lat": 31.15951443889311, "lon": 70.7149877721681, "alt_km": 847.0304738130708, "timestamp": "2025-12-27T04:40:45.779329+00:00", "meta": {"OBJECT_NAME": "FENGYUN 1C DEB", "OBJECT_ID": "1999-025QF", "EPOCH": "2025-12-26T20:37:57.699840", "MEAN_MOTION": 14.23214876, "ECCENTRICITY": 0.00535659, "INCLINATION": 98.8313, "RA_OF_ASC_NODE": 75.7727, "ARG_OF_PERICENTER": 239.5752, "MEAN_ANOMALY": 234.9582, "EPHEMERIS_TYPE": 0, "CLASSIFICATION_TYPE": "U", "NORAD_CAT_ID": 30078, "ELEMENT_SET_NO": 999, "REV_AT_EPOCH": 97314, "BSTAR": 0.0013299086, "MEAN_MOTION_DOT": 3.008e-05, "MEAN_MOTION_DDOT": 0}, "tle": {"line1": "1 30078U 99025QF  25360.85969560  .00003008  00000+0  13299-2 0  9993", "line2": "2 30078  98.8313  75.7727 0053565 239.5752 234.9582 14.23214876973149"}}, "geometry": {"type": "Point", "coordinates": [70.7149877721681, 31.15951443889311]}}, {"type": "Feature", "properties": {"norad_id": 30079, "name": "FENGYUN 1C DEB", "group": "fengyun-1c-debris", "lat": 44.801697935716994, "lon": 47.48204758869396, "alt_km": 939.048372330436, "timestamp": "2025-12-27T04:40:45.779339+00:00", "meta": {"OBJECT_NAME": "FENGYUN 1C DEB", "OBJECT_ID": "1999-025QG", "EPOCH": "2025-12-26T15:22:50.648736", "MEAN_MOTION": 14.00801229, "ECCENTRICITY": 0.0085155, "INCLINATION": 99.0323, "RA_OF_ASC_NODE": 56.0231, "ARG_OF_PERICENTER": 259.8644, "MEAN_ANOMALY": 232.419, "EPHEMERIS_TYPE": 0, "CLASSIFICATION_TYPE": "U", "NORAD_CAT_ID": 30079, "ELEMENT_SET_NO": 999, "REV_AT_EPOCH": 96732, "BSTAR": 0.00015217, "MEAN_MOTION_DOT": 1.89e-06, "MEAN_MOTION_DDOT": 0}, "tle": {"line1": "1 30079U 99025QG  25360.64086399  .00000189  00000+0  15217-3 0  9991", "line2": "2 30079  99.0323  56.0231 0085155 259.8644 232.4190 14.00801229967321"}}, "geometry": {"type": "Point", "coordinates": [47.48204758869396, 44.801697935716994]}}, {"type": "Feature", "properties": {"norad_id": 30080, "name": "FENGYUN 1C DEB", "group": "fengyun-1c-debris", "lat": -81.29296929192407, "lon": 72.44022939430644, "alt_km": 895.6274102173757, "timestamp": "2025-12-27T04:40:45.779349+00:00", "meta": {"OBJECT_NAME": "FENGYUN 1C DEB", "OBJECT_ID": "1999-025QH", "EPOCH": "2025-12-26T11:05:31.336800", "MEAN_MOTION": 14.10836944, "ECCENTRICITY": 0.013339, "INCLINATION": 98.6998, "RA_OF_ASC_NODE": 340.5505, "ARG_OF_PERICENTER": 21.85, "MEAN_ANOMALY": 129.5607, "EPHEMERIS_TYPE": 0, "CLASSIFICATION_TYPE": "U", "NORAD_CAT_ID": 30080, "ELEMENT_SET_NO": 999, "REV_AT_EPOCH": 97431, "BSTAR": 0.00031237, "MEAN_MOTION_DOT": 5.66e-06, "MEAN_MOTION_DDOT": 0}, "tle": {"line1": "1 30080U 99025QH  25360.46216825  .00000566  00000+0  31237-3 0  9991", "line2": "2 30080  98.6998 340.5505 0133390  21.8500 129.5607 14.10836944974313"}}, "geometry": {"type": "Point", "coordinates": [72.44022939430644, -81.29296929192407]}}]}